{
  "type": "FeatureCollection",
  "features": [
    {
      "type": "Feature",
      "properties": {
        "norad_id": 57400,
        "name": "TIANMU-1 08",
        "group": "weather",
        "lat": -56.275274115714936,
        "lon": -141.53840042324225,
        "alt_km": 492.81646155886665,
        "timestamp": "2025-12-26T03:50:11.730433+00:00",
        "meta_object_name": "TIANMU-1 08",
        "meta_object_id": "2023-101B",
        "meta_epoch": "2025-12-25T20:31:02.597952",
        "meta_mean_motion": 15.28237805,
        "meta_eccentricity": 0.0006897,
        "meta_inclination": 97.2844,
        "meta_ra_of_asc_node": 49.2109,
        "meta_arg_of_pericenter": 46.5051,
        "meta_mean_anomaly": 313.6761,
        "meta_ephemeris_type": 0,
        "meta_classification_type": "U",
        "meta_norad_cat_id": 57400,
        "meta_element_set_no": 999,
        "meta_rev_at_epoch": 13515,
        "meta_bstar": 0.00026756,
        "meta_mean_motion_dot": 7.294e-05,
        "meta_mean_motion_ddot": 0,
        "tle_line1": "1 57400U 23101B   25359.85489118  .00007294  00000+0  26756-3 0  9991",
        "tle_line2": "2 57400  97.2844  49.2109 0006897  46.5051 313.6761 15.28237805135151"
      },
      "geometry": {
        "type": "Point",
        "coordinates": [
          -141.53840042324225,
          -56.275274115714936
        ]
      }
    },
    {
      "type": "Feature",
      "properties": {
        "norad_id": 57401,
        "name": "TIANMU-1 09",
        "group": "weather",
        "lat": -48.485929494247095,
        "lon": 57.31953677851455,
        "alt_km": 488.26742880435177,
        "timestamp": "2025-12-26T03:50:11.730445+00:00",
        "meta_object_name": "TIANMU-1 09",
        "meta_object_id": "2023-101C",
        "meta_epoch": "2025-12-25T20:11:36.850272",
        "meta_mean_motion": 15.28273845,
        "meta_eccentricity": 0.0006171,
        "meta_inclination": 97.2802,
        "meta_ra_of_asc_node": 48.7042,
        "meta_arg_of_pericenter": 47.6432,
        "meta_mean_anomaly": 312.533,
        "meta_ephemeris_type": 0,
        "meta_classification_type": "U",
        "meta_norad_cat_id": 57401,
        "meta_element_set_no": 999,
        "meta_rev_at_epoch": 13515,
        "meta_bstar": 0.00029173,
        "meta_mean_motion_dot": 7.968e-05,
        "meta_mean_motion_ddot": 0,
        "tle_line1": "1 57401U 23101C   25359.84139873  .00007968  00000+0  29173-3 0  9995",
        "tle_line2": "2 57401  97.2802  48.7042 0006171  47.6432 312.5330 15.28273845135150"
      },
      "geometry": {
        "type": "Point",
        "coordinates": [
          57.31953677851455,
          -48.485929494247095
        ]
      }
    },
    {
      "type": "Feature",
      "properties": {
        "norad_id": 57402,
        "name": "TIANMU-1 10",
        "group": "weather",
        "lat": 56.47186707375912,
        "lon": -118.98355485969638,
        "alt_km": 474.5798781912463,
        "timestamp": "2025-12-26T03:50:11.730455+00:00",
        "meta_object_name": "TIANMU-1 10",
        "meta_object_id": "2023-101D",
        "meta_epoch": "2025-12-25T19:26:41.538336",
        "meta_mean_motion": 15.28265543,
        "meta_eccentricity": 0.000788,
        "meta_inclination": 97.2881,
        "meta_ra_of_asc_node": 49.5375,
        "meta_arg_of_pericenter": 45.0608,
        "meta_mean_anomaly": 315.127,
        "meta_ephemeris_type": 0,
        "meta_classification_type": "U",
        "meta_norad_cat_id": 57402,
        "meta_element_set_no": 999,
        "meta_rev_at_epoch": 13514,
        "meta_bstar": 0.00029777,
        "meta_mean_motion_dot": 8.135e-05,
        "meta_mean_motion_ddot": 0,
        "tle_line1": "1 57402U 23101D   25359.81020299  .00008135  00000+0  29777-3 0  9991",
        "tle_line2": "2 57402  97.2881  49.5375 0007880  45.0608 315.1270 15.28265543135148"
      },
      "geometry": {
        "type": "Point",
        "coordinates": [
          -118.98355485969638,
          56.47186707375912
        ]
      }
    },
    {
      "type": "Feature",
      "properties": {
        "norad_id": 57490,
        "name": "FENGYUN 3F",
        "group": "weather",
        "lat": -20.084181099761985,
        "lon": -114.97625209972429,
        "alt_km": 830.7543196648494,
        "timestamp": "2025-12-26T03:50:11.730466+00:00",
        "meta_object_name": "FENGYUN 3F",
        "meta_object_id": "2023-111A",
        "meta_epoch": "2025-12-25T20:07:54.448032",
        "meta_mean_motion": 14.19896974,
        "meta_eccentricity": 8.45e-05,
        "meta_inclination": 98.7066,
        "meta_ra_of_asc_node": 67.9199,
        "meta_arg_of_pericenter": 117.8044,
        "meta_mean_anomaly": 242.3218,
        "meta_ephemeris_type": 0,
        "meta_classification_type": "U",
        "meta_norad_cat_id": 57490,
        "meta_element_set_no": 999,
        "meta_rev_at_epoch": 12426,
        "meta_bstar": 5.8924e-05,
        "meta_mean_motion_dot": 8.1e-07,
        "meta_mean_motion_ddot": 0,
        "tle_line1": "1 57490U 23111A   25359.83882463  .00000081  00000+0  58924-4 0  9999",
        "tle_line2": "2 57490  98.7066  67.9199 0000845 117.8044 242.3218 14.19896974124261"
      },
      "geometry": {
        "type": "Point",
        "coordinates": [
          -114.97625209972429,
          -20.084181099761985
        ]
      }
    },
    {
      "type": "Feature",
      "properties": {
        "norad_id": 58584,
        "name": "ARKTIKA-M 2",
        "group": "weather",
        "lat": 49.52718693647027,
        "lon": -42.87095036030292,
        "alt_km": 26479.061727880773,
        "timestamp": "2025-12-26T03:50:11.730481+00:00",
        "meta_object_name": "ARKTIKA-M 2",
        "meta_object_id": "2023-198A",
        "meta_epoch": "2025-12-24T19:00:30.507264",
        "meta_mean_motion": 2.00602347,
        "meta_eccentricity": 0.6865959,
        "meta_inclination": 63.2255,
        "meta_ra_of_asc_node": 173.58,
        "meta_arg_of_pericenter": 268.0557,
        "meta_mean_anomaly": 18.8416,
        "meta_ephemeris_type": 0,
        "meta_classification_type": "U",
        "meta_norad_cat_id": 58584,
        "meta_element_set_no": 999,
        "meta_rev_at_epoch": 1482,
        "meta_bstar": 0,
        "meta_mean_motion_dot": 2.24e-06,
        "meta_mean_motion_ddot": 0,
        "tle_line1": "1 58584U 23198A   25358.79201976  .00000224  00000+0  00000+0 0  9993",
        "tle_line2": "2 58584  63.2255 173.5800 6865959 268.0557  18.8416  2.00602347 14827"
      },
      "geometry": {
        "type": "Point",
        "coordinates": [
          -42.87095036030292,
          49.52718693647027
        ]
      }
    },
    {
      "type": "Feature",
      "properties": {
        "norad_id": 58645,
        "name": "TIANMU-1 11",
        "group": "weather",
        "lat": 46.13642753680878,
        "lon": -152.72375406290348,
        "alt_km": 490.12751159709205,
        "timestamp": "2025-12-26T03:50:11.730494+00:00",
        "meta_object_name": "TIANMU-1 11",
        "meta_object_id": "2023-205A",
        "meta_epoch": "2025-12-25T20:57:11.406816",
        "meta_mean_motion": 15.24756005,
        "meta_eccentricity": 0.0007576,
        "meta_inclination": 97.3598,
        "meta_ra_of_asc_node": 19.2655,
        "meta_arg_of_pericenter": 254.049,
        "meta_mean_anomaly": 105.9914,
        "meta_ephemeris_type": 0,
        "meta_classification_type": "U",
        "meta_norad_cat_id": 58645,
        "meta_element_set_no": 999,
        "meta_rev_at_epoch": 11109,
        "meta_bstar": 0.00028197,
        "meta_mean_motion_dot": 6.92e-05,
        "meta_mean_motion_ddot": 0,
        "tle_line1": "1 58645U 23205A   25359.87304869  .00006920  00000+0  28197-3 0  9995",
        "tle_line2": "2 58645  97.3598  19.2655 0007576 254.0490 105.9914 15.24756005111094"
      },
      "geometry": {
        "type": "Point",
        "coordinates": [
          -152.72375406290348,
          46.13642753680878
        ]
      }
    },
    {
      "type": "Feature",
      "properties": {
        "norad_id": 58646,
        "name": "TIANMU-1 12",
        "group": "weather",
        "lat": -19.859489695651032,
        "lon": 22.02371283044771,
        "alt_km": 498.4856629040951,
        "timestamp": "2025-12-26T03:50:11.730504+00:00",
        "meta_object_name": "TIANMU-1 12",
        "meta_object_id": "2023-205B",
        "meta_epoch": "2025-12-25T20:02:54.801600",
        "meta_mean_motion": 15.24642519,
        "meta_eccentricity": 0.0006036,
        "meta_inclination": 97.3586,
        "meta_ra_of_asc_node": 19.0295,
        "meta_arg_of_pericenter": 231.9294,
        "meta_mean_anomaly": 128.14,
        "meta_ephemeris_type": 0,
        "meta_classification_type": "U",
        "meta_norad_cat_id": 58646,
        "meta_element_set_no": 999,
        "meta_rev_at_epoch": 11107,
        "meta_bstar": 0.00026477,
        "meta_mean_motion_dot": 6.469e-05,
        "meta_mean_motion_ddot": 0,
        "tle_line1": "1 58646U 23205B   25359.83535650  .00006469  00000+0  26477-3 0  9993",
        "tle_line2": "2 58646  97.3586  19.0295 0006036 231.9294 128.1400 15.24642519111075"
      },
      "geometry": {
        "type": "Point",
        "coordinates": [
          22.02371283044771,
          -19.859489695651032
        ]
      }
    }
  ]
}